CCSDS_OMM_VERS = 2.0
CREATION_DATE  = 
ORIGINATOR     = 

OBJECT_NAME    = 2026-027A
OBJECT_ID      = 2026-027A
CENTER_NAME    = EARTH
REF_FRAME      = TEME
TIME_SYSTEM    = UTC
MEAN_ELEMENT_THEORY = SGP/SGP4

EPOCH          = 2026-03-03T15:18:03.974400
MEAN_MOTION    = 15.17566749
ECCENTRICITY   = .00098005
INCLINATION    = 97.4897
RA_OF_ASC_NODE = 191.7156
ARG_OF_PERICENTER = 216.1800
MEAN_ANOMALY   = 143.8771

EPHEMERIS_TYPE = 0
CLASSIFICATION_TYPE = U
NORAD_CAT_ID   = 67746
ELEMENT_SET_NO = 999
REV_AT_EPOCH   = 294
BSTAR          = .62656818E-3
MEAN_MOTION_DOT = .12541E-3
MEAN_MOTION_DDOT = 0

CCSDS_OMM_VERS = 2.0
CREATION_DATE  = 
ORIGINATOR     = 

OBJECT_NAME    = 2026-027B
OBJECT_ID      = 2026-027B
CENTER_NAME    = EARTH
REF_FRAME      = TEME
TIME_SYSTEM    = UTC
MEAN_ELEMENT_THEORY = SGP/SGP4

EPOCH          = 2026-03-03T15:16:12.559872
MEAN_MOTION    = 15.17667130
ECCENTRICITY   = .0009922
INCLINATION    = 97.4892
RA_OF_ASC_NODE = 191.7158
ARG_OF_PERICENTER = 218.7116
MEAN_ANOMALY   = 141.3408

EPHEMERIS_TYPE = 0
CLASSIFICATION_TYPE = U
NORAD_CAT_ID   = 67747
ELEMENT_SET_NO = 999
REV_AT_EPOCH   = 294
BSTAR          = .61837625E-3
MEAN_MOTION_DOT = .12412E-3
MEAN_MOTION_DDOT = 0

CCSDS_OMM_VERS = 2.0
CREATION_DATE  = 
ORIGINATOR     = 

OBJECT_NAME    = 2026-027C
OBJECT_ID      = 2026-027C
CENTER_NAME    = EARTH
REF_FRAME      = TEME
TIME_SYSTEM    = UTC
MEAN_ELEMENT_THEORY = SGP/SGP4

EPOCH          = 2026-03-03T15:14:18.624192
MEAN_MOTION    = 15.17715225
ECCENTRICITY   = .00102569
INCLINATION    = 97.4903
RA_OF_ASC_NODE = 191.7205
ARG_OF_PERICENTER = 221.2633
MEAN_ANOMALY   = 138.7827

EPHEMERIS_TYPE = 0
CLASSIFICATION_TYPE = U
NORAD_CAT_ID   = 67748
ELEMENT_SET_NO = 999
REV_AT_EPOCH   = 294
BSTAR          = .42719668E-3
MEAN_MOTION_DOT = .8562E-4
MEAN_MOTION_DDOT = 0

CCSDS_OMM_VERS = 2.0
CREATION_DATE  = 
ORIGINATOR     = 

OBJECT_NAME    = 2026-027D
OBJECT_ID      = 2026-027D
CENTER_NAME    = EARTH
REF_FRAME      = TEME
TIME_SYSTEM    = UTC
MEAN_ELEMENT_THEORY = SGP/SGP4

EPOCH          = 2026-03-03T15:10:34.398912
MEAN_MOTION    = 15.18005576
ECCENTRICITY   = .00099644
INCLINATION    = 97.4898
RA_OF_ASC_NODE = 191.7230
ARG_OF_PERICENTER = 226.4374
MEAN_ANOMALY   = 133.6033

EPHEMERIS_TYPE = 0
CLASSIFICATION_TYPE = U
NORAD_CAT_ID   = 67749
ELEMENT_SET_NO = 999
REV_AT_EPOCH   = 289
BSTAR          = .70112448E-3
MEAN_MOTION_DOT = .14224E-3
MEAN_MOTION_DDOT = 0

CCSDS_OMM_VERS = 2.0
CREATION_DATE  = 
ORIGINATOR     = 

OBJECT_NAME    = 2026-027E
OBJECT_ID      = 2026-027E
CENTER_NAME    = EARTH
REF_FRAME      = TEME
TIME_SYSTEM    = UTC
MEAN_ELEMENT_THEORY = SGP/SGP4

EPOCH          = 2026-03-03T15:10:37.745184
MEAN_MOTION    = 15.17974264
ECCENTRICITY   = .00091678
INCLINATION    = 97.4910
RA_OF_ASC_NODE = 191.7259
ARG_OF_PERICENTER = 227.3004
MEAN_ANOMALY   = 132.7459

EPHEMERIS_TYPE = 0
CLASSIFICATION_TYPE = U
NORAD_CAT_ID   = 67750
ELEMENT_SET_NO = 999
REV_AT_EPOCH   = 294
BSTAR          = .62296362E-3
MEAN_MOTION_DOT = .12614E-3
MEAN_MOTION_DDOT = 0

CCSDS_OMM_VERS = 2.0
CREATION_DATE  = 
ORIGINATOR     = 

OBJECT_NAME    = 2026-027F
OBJECT_ID      = 2026-027F
CENTER_NAME    = EARTH
REF_FRAME      = TEME
TIME_SYSTEM    = UTC
MEAN_ELEMENT_THEORY = SGP/SGP4

EPOCH          = 2026-03-03T15:08:09.682368
MEAN_MOTION    = 15.18229264
ECCENTRICITY   = .00103347
INCLINATION    = 97.4909
RA_OF_ASC_NODE = 191.7286
ARG_OF_PERICENTER = 227.9487
MEAN_ANOMALY   = 132.0868

EPHEMERIS_TYPE = 0
CLASSIFICATION_TYPE = U
NORAD_CAT_ID   = 67751
ELEMENT_SET_NO = 999
REV_AT_EPOCH   = 294
BSTAR          = .95333727E-3
MEAN_MOTION_DOT = .19506E-3
MEAN_MOTION_DDOT = 0

CCSDS_OMM_VERS = 2.0
CREATION_DATE  = 
ORIGINATOR     = 

OBJECT_NAME    = 2026-027G
OBJECT_ID      = 2026-027G
CENTER_NAME    = EARTH
REF_FRAME      = TEME
TIME_SYSTEM    = UTC
MEAN_ELEMENT_THEORY = SGP/SGP4

EPOCH          = 2026-03-03T15:08:58.777440
MEAN_MOTION    = 15.18007320
ECCENTRICITY   = .00094265
INCLINATION    = 97.4905
RA_OF_ASC_NODE = 191.7260
ARG_OF_PERICENTER = 228.1298
MEAN_ANOMALY   = 131.9132

EPHEMERIS_TYPE = 0
CLASSIFICATION_TYPE = U
NORAD_CAT_ID   = 67752
ELEMENT_SET_NO = 999
REV_AT_EPOCH   = 294
BSTAR          = .63740278E-3
MEAN_MOTION_DOT = .12921E-3
MEAN_MOTION_DDOT = 0

CCSDS_OMM_VERS = 2.0
CREATION_DATE  = 
ORIGINATOR     = 

OBJECT_NAME    = JIELONG-3 R/B
OBJECT_ID      = 2026-027H
CENTER_NAME    = EARTH
REF_FRAME      = TEME
TIME_SYSTEM    = UTC
MEAN_ELEMENT_THEORY = SGP/SGP4

EPOCH          = 2026-03-03T15:42:58.272768
MEAN_MOTION    = 15.69871418
ECCENTRICITY   = .02330551
INCLINATION    = 97.5130
RA_OF_ASC_NODE = 193.2023
ARG_OF_PERICENTER = 267.0577
MEAN_ANOMALY   = 90.3995

EPHEMERIS_TYPE = 0
CLASSIFICATION_TYPE = U
NORAD_CAT_ID   = 67753
ELEMENT_SET_NO = 999
REV_AT_EPOCH   = 303
BSTAR          = .67565802E-3
MEAN_MOTION_DOT = .440898E-2
MEAN_MOTION_DDOT = .237719E-5

CCSDS_OMM_VERS = 2.0
CREATION_DATE  = 
ORIGINATOR     = 

OBJECT_NAME    = JIELONG-3 DEB
OBJECT_ID      = 2026-027J
CENTER_NAME    = EARTH
REF_FRAME      = TEME
TIME_SYSTEM    = UTC
MEAN_ELEMENT_THEORY = SGP/SGP4

EPOCH          = 2026-03-03T14:34:15.701952
MEAN_MOTION    = 15.91869844
ECCENTRICITY   = .01636956
INCLINATION    = 97.5068
RA_OF_ASC_NODE = 193.4171
ARG_OF_PERICENTER = 266.3385
MEAN_ANOMALY   = 91.9156

EPHEMERIS_TYPE = 0
CLASSIFICATION_TYPE = U
NORAD_CAT_ID   = 67754
ELEMENT_SET_NO = 999
REV_AT_EPOCH   = 298
BSTAR          = .1299658E-2
MEAN_MOTION_DOT = .1583635E-1
MEAN_MOTION_DDOT = .2442832E-5

CCSDS_OMM_VERS = 2.0
CREATION_DATE  = 
ORIGINATOR     = 

OBJECT_NAME    = 2026-028A
OBJECT_ID      = 2026-028A
CENTER_NAME    = EARTH
REF_FRAME      = TEME
TIME_SYSTEM    = UTC
MEAN_ELEMENT_THEORY = SGP/SGP4

EPOCH          = 2026-03-03T07:37:03.604512
MEAN_MOTION    = 0.99524200
ECCENTRICITY   = .00420062
INCLINATION    = 0.4856
RA_OF_ASC_NODE = 289.5174
ARG_OF_PERICENTER = 229.3523
MEAN_ANOMALY   = 201.2683

EPHEMERIS_TYPE = 0
CLASSIFICATION_TYPE = U
NORAD_CAT_ID   = 67756
ELEMENT_SET_NO = 999
REV_AT_EPOCH   = 19
BSTAR          = 0
MEAN_MOTION_DOT = -.45E-6
MEAN_MOTION_DDOT = 0

CCSDS_OMM_VERS = 2.0
CREATION_DATE  = 
ORIGINATOR     = 

OBJECT_NAME    = JAM-E JAM 1
OBJECT_ID      = 2026-028B
CENTER_NAME    = EARTH
REF_FRAME      = TEME
TIME_SYSTEM    = UTC
MEAN_ELEMENT_THEORY = SGP/SGP4

EPOCH          = 2026-03-02T11:00:05.848128
MEAN_MOTION    = 1.00305295
ECCENTRICITY   = .00051791
INCLINATION    = 0.4889
RA_OF_ASC_NODE = 283.4606
ARG_OF_PERICENTER = 115.8284
MEAN_ANOMALY   = 320.7100

EPHEMERIS_TYPE = 0
CLASSIFICATION_TYPE = U
NORAD_CAT_ID   = 67757
ELEMENT_SET_NO = 999
REV_AT_EPOCH   = 5
BSTAR          = 0
MEAN_MOTION_DOT = .138E-5
MEAN_MOTION_DDOT = 0

CCSDS_OMM_VERS = 2.0
CREATION_DATE  = 
ORIGINATOR     = 

OBJECT_NAME    = KUIPER-00159
OBJECT_ID      = 2026-030A
CENTER_NAME    = EARTH
REF_FRAME      = TEME
TIME_SYSTEM    = UTC
MEAN_ELEMENT_THEORY = SGP/SGP4

EPOCH          = 2026-03-03T13:55:02.905536
MEAN_MOTION    = 15.35440297
ECCENTRICITY   = .00044722
INCLINATION    = 51.8843
RA_OF_ASC_NODE = 248.6258
ARG_OF_PERICENTER = 28.2168
MEAN_ANOMALY   = 331.9060

EPHEMERIS_TYPE = 0
CLASSIFICATION_TYPE = U
NORAD_CAT_ID   = 67764
ELEMENT_SET_NO = 999
REV_AT_EPOCH   = 415
BSTAR          = .10300725E-2
MEAN_MOTION_DOT = .35808E-3
MEAN_MOTION_DDOT = 0

